OBJECT_NAME,OBJECT_ID,EPOCH,MEAN_MOTION,ECCENTRICITY,INCLINATION,RA_OF_ASC_NODE,ARG_OF_PERICENTER,MEAN_ANOMALY,EPHEMERIS_TYPE,CLASSIFICATION_TYPE,NORAD_CAT_ID,ELEMENT_SET_NO,REV_AT_EPOCH,BSTAR,MEAN_MOTION_DOT,MEAN_MOTION_DDOT
DRUMS,2021-102G,2026-05-22T01:50:44.839968,15.20200957,.00140355,97.3310,179.8905,329.8395,30.2031,0,U,49401,999,24961,.16139665E-3,.3437E-4,0
KOSEN-1,2021-102H,2026-05-22T01:18:24.956928,15.26426435,.00120388,97.3205,184.7244,303.5145,56.4944,0,U,49402,999,25003,.2090596E-3,.5383E-4,0
STARLINK-3151,2021-104A,2026-05-22T08:00:03.000384,15.83147578,.00016859,53.2137,230.6381,78.2712,202.4611,0,U,49408,999,599,.10357622E-2,.232748E-2,0
STARLINK-3075,2021-104B,2026-05-22T01:18:20.404512,15.08840615,.00013472,53.2147,259.7743,87.1853,272.9293,0,U,49409,999,24971,.46611664E-4,.454E-5,0
STARLINK-3147,2021-104C,2026-05-22T07:30:39.940128,15.08840161,.00013943,53.2172,258.6212,86.4659,273.6493,0,U,49410,999,24974,.50309473E-4,.513E-5,0
STARLINK-3162,2021-104D,2026-05-21T18:36:55.423008,15.08842680,.00009346,53.2180,251.0242,80.5124,279.5974,0,U,49411,999,24980,.5966744E-5,-.193E-5,0
STARLINK-3157,2021-104F,2026-05-22T07:16:05.663712,15.08842183,.00012894,53.2168,248.6703,76.0855,284.0280,0,U,49413,999,24988,-.70568564E-4,-.1411E-4,0
STARLINK-3146,2021-104G,2026-05-22T07:23:59.374176,15.08838593,.00011738,53.2174,258.6327,83.8381,276.2745,0,U,49414,999,24974,.44910948E-4,.427E-5,0
STARLINK-3159,2021-104H,2026-05-22T07:09:24.920640,15.08837988,.00013246,53.2161,248.6805,89.1868,270.9276,0,U,49415,999,24987,.7792347E-5,-.164E-5,0
STARLINK-3133,2021-104J,2026-05-22T07:13:23.413152,15.08838800,.00012348,53.2160,258.6652,92.2789,267.8345,0,U,49416,999,24974,.50547607E-4,.517E-5,0
STARLINK-3154,2021-104K,2026-05-21T15:57:53.588448,15.08846343,.00012389,53.2172,251.1723,82.2701,277.8432,0,U,49417,999,24978,-.16563841E-3,-.2923E-4,0
STARLINK-3111,2021-104L,2026-05-22T07:08:05.596800,15.08836793,.00011552,53.2170,258.6810,87.7401,272.3723,0,U,49418,999,24973,.6433915E-4,.736E-5,0
STARLINK-3120,2021-104M,2026-05-21T16:33:41.068224,15.08862660,.00013857,53.2170,261.4069,87.9804,272.1347,0,U,49419,999,24964,.20488018E-3,.2976E-4,0
STARLINK-3110,2021-104N,2026-05-21T16:44:19.340448,15.08835961,.00011172,53.2160,261.3756,88.9215,271.1905,0,U,49420,999,24964,-.28191566E-4,-.736E-5,0
STARLINK-3112,2021-104P,2026-05-22T01:28:54.415488,15.08856564,.00009112,53.2174,259.5484,97.4470,262.6625,0,U,49421,999,24970,.18383926E-3,.2641E-4,0
STARLINK-3161,2021-104Q,2026-05-22T07:41:18.948480,15.08840962,.00010188,53.2153,258.8951,96.8932,263.2176,0,U,49422,999,24973,-.69258257E-4,-.139E-4,0
STARLINK-3135,2021-104S,2026-05-22T06:46:53.774976,15.08834175,.0001131,53.2169,258.7491,89.8794,270.2327,0,U,49424,999,24973,-.37257172E-4,-.881E-5,0
STARLINK-3139,2021-104T,2026-05-21T16:08:36.216960,15.08839416,.00009343,53.2174,261.4977,88.8441,271.2658,0,U,49425,999,24965,.3449656E-5,-.233E-5,0
STARLINK-3114,2021-104U,2026-05-21T19:28:35.670144,15.08837731,.00010714,53.2175,260.8626,99.3030,260.8083,0,U,49426,999,24966,-.1693901E-5,-.315E-5,0
STARLINK-3131,2021-104V,2026-05-21T19:14:04.968096,15.08839165,.00012421,53.2157,260.9230,71.3798,288.7329,0,U,49427,999,24967,-.32698451E-4,-.808E-5,0
STARLINK-3121,2021-104W,2026-05-22T07:29:16.526976,15.08838436,.00013613,53.2170,258.5284,88.5010,271.6138,0,U,49428,999,24975,.5972228E-5,-.193E-5,0
STARLINK-3138,2021-104Y,2026-05-21T16:35:09.002688,15.08837446,.00013121,53.2165,261.6832,91.1396,268.9746,0,U,49430,999,24965,.24171184E-4,.97E-6,0
STARLINK-3153,2021-104Z,2026-05-22T07:18:43.307424,15.08836952,.00012183,53.2169,258.8303,82.3409,277.7721,0,U,49431,999,24974,.30753564E-4,.202E-5,0
STARLINK-3158,2021-104AA,2026-05-21T19:52:29.702784,15.08840610,.00011405,53.2173,250.7872,82.8389,277.2733,0,U,49432,999,24981,-.20325559E-4,-.611E-5,0
STARLINK-3079,2021-104AB,2026-05-22T07:00:08.524512,15.08834809,.0001157,53.2162,238.7091,87.9647,272.1478,0,U,49433,999,25111,.24724507E-4,.106E-5,0
STARLINK-3134,2021-104AC,2026-05-21T16:12:33.027264,15.08842574,.00010958,53.2165,261.6355,83.6277,276.4840,0,U,49434,999,25073,-.35414898E-4,-.851E-5,0
STARLINK-3117,2021-104AD,2026-05-22T07:06:49.938912,15.08848543,.00011947,53.2164,238.6893,89.1156,270.9974,0,U,49435,999,25002,.17460055E-3,.2493E-4,0
STARLINK-3049,2021-104AE,2026-05-22T07:05:27.721536,15.08871768,.00007553,53.2164,238.6940,96.2599,263.8479,0,U,49436,999,25002,-.55923793E-3,-.9184E-4,0
STARLINK-3130,2021-104AF,2026-05-22T06:54:50.423904,15.08837391,.00013066,53.2166,238.7242,90.2843,269.8299,0,U,49437,999,25002,.16181268E-4,-.3E-6,0
STARLINK-3044,2021-104AG,2026-05-22T06:40:18.535584,15.08830269,.00013731,53.2199,238.7059,91.9119,268.2030,0,U,49438,999,25002,.41764003E-4,.377E-5,0
STARLINK-3105,2021-104AJ,2026-05-21T18:01:09.128640,15.08836467,.00008341,53.2181,241.1342,113.3339,246.7742,0,U,49440,999,24994,-.10111857E-3,-.1896E-4,0
STARLINK-3128,2021-104AK,2026-05-21T12:48:30.483360,15.08836318,.00010489,53.2167,242.1084,88.9137,271.1975,0,U,49441,999,24991,.54257558E-4,.576E-5,0
STARLINK-3098,2021-104AL,2026-05-22T06:38:56.509152,15.08839638,.00011071,53.2187,238.7768,80.4675,279.6442,0,U,49442,999,25002,.24686179E-4,.105E-5,0
STARLINK-3136,2021-104AM,2026-05-21T15:31:45.071616,15.09978582,.00014683,53.2143,241.4395,25.8460,334.2606,0,U,49443,999,24993,.64386776E-3,.10297E-3,0
STARLINK-3126,2021-104AN,2026-05-22T06:35:01.143456,15.08838802,.00012572,53.2176,238.7958,98.0058,262.1077,0,U,49444,999,25002,.45063421E-4,.429E-5,0
STARLINK-3122,2021-104AP,2026-05-21T15:54:06.270912,15.08837423,.00011769,53.2160,251.9270,87.1435,272.9692,0,U,49445,999,24978,-.34650639E-4,-.839E-5,0
STARLINK-3099,2021-104AQ,2026-05-22T06:28:20.673408,15.08841688,.00011641,53.2177,238.8071,81.8384,278.2740,0,U,49446,999,25002,.43831724E-4,.41E-5,0
STARLINK-3115,2021-104AR,2026-05-22T06:42:54.847008,15.08827914,.00008847,53.2181,248.7595,88.0612,272.0481,0,U,49447,999,24988,.64924078E-4,.745E-5,0
STARLINK-3137,2021-104AT,2026-05-22T04:24:50.817600,15.47123131,.00023721,53.2143,217.3229,349.9152,10.1809,0,U,49449,999,25032,.82785192E-3,.42454E-3,0
STARLINK-3127,2021-104AU,2026-05-22T06:53:31.538976,15.08840737,.00012454,53.2172,248.7657,88.9420,271.1715,0,U,49450,999,25014,.39378499E-4,.339E-5,0
STARLINK-3125,2021-104AV,2026-05-21T16:13:51.653856,15.08829556,.00011235,53.2175,251.4691,74.0776,286.0340,0,U,49451,999,24979,-.32266005E-4,-.801E-5,0
STARLINK-3150,2021-104AW,2026-05-21T19:10:06.706272,15.08832452,.00011897,53.2156,250.9615,89.6818,270.4310,0,U,49452,999,24981,.36657898E-4,.296E-5,0
STARLINK-3129,2021-104AX,2026-05-22T06:33:42.989472,15.08835039,.00012784,53.2165,248.8774,94.2501,265.8637,0,U,49453,999,24988,.62935853E-4,.714E-5,0
STARLINK-3160,2021-104AY,2026-05-21T17:43:56.443872,15.08832605,.00012503,53.2162,251.1872,81.5998,278.5136,0,U,49454,999,24980,.19418499E-4,.21E-6,0
STARLINK-3145,2021-104AZ,2026-05-22T06:05:49.533792,15.08835452,.00008413,53.2164,248.8771,80.0150,280.0938,0,U,49455,999,24988,-.2392307E-5,-.326E-5,0
STARLINK-3124,2021-104BA,2026-05-21T14:29:15.397152,15.08841521,.00009743,53.2191,251.8457,76.1646,283.9455,0,U,49456,999,24978,-.50800681E-4,-.1096E-4,0
STARLINK-3132,2021-104BB,2026-05-21T14:08:02.937696,15.08835228,.00010381,53.2174,251.8732,86.1340,273.9770,0,U,49457,999,24978,-.15788623E-4,-.539E-5,0
STARLINK-3156,2021-104BC,2026-05-22T06:11:07.498752,15.08834814,.00012965,53.2148,248.8621,94.9656,265.1484,0,U,49458,999,24988,.13565177E-4,-.72E-6,0
STARLINK-3141,2021-104BD,2026-05-22T07:30:36.891936,15.08834191,.00012055,53.2167,248.6134,90.6144,269.4986,0,U,49459,999,24989,-.14867723E-4,-.524E-5,0
STARLINK-3140,2021-104BE,2026-05-22T07:25:18.665184,15.08842555,.00012337,53.2174,248.6297,83.7042,276.4090,0,U,49460,999,24988,-.30415148E-4,-.772E-5,0
GLOBAL-14,2021-106A,2026-05-22T02:48:45.895104,15.49203225,.00161456,42.0046,85.8521,208.2802,151.7166,0,U,49469,999,25408,.33918591E-3,.18793E-3,0
GAOFEN-11 03,2021-107A,2026-05-22T07:25:06.137184,15.23609331,.00092927,97.2099,187.4503,142.5323,217.6564,0,U,49492,999,25069,.16009914E-3,.3769E-4,0
GAOFEN-3 02,2021-109A,2026-05-22T07:25:55.324704,14.42213245,.00039961,98.4094,150.7742,73.2379,286.9249,0,U,49495,999,23658,.43482204E-4,.1E-5,0
COSMOS 2552,2021-113A,2026-05-12T01:21:47.979648,2.00564720,.64473923,62.8445,210.7069,272.5222,20.5946,0,U,49503,999,3267,0,-.293E-5,0
ZHONGXING-1D,2021-114A,2026-05-22T06:12:24.056064,1.00267407,.00013151,0.0068,331.2122,251.3273,240.5953,0,U,49505,999,1656,0,-.345E-5,0
STARLINK-3219,2021-115A,2026-05-22T02:43:09.961536,15.08839612,.00008965,53.2165,179.7304,82.6073,277.5021,0,U,49724,999,24661,.10900829E-4,-.114E-5,0
STARLINK-3218,2021-115B,2026-05-22T03:14:57.703776,15.08822814,.00011457,53.2169,179.5170,84.8318,275.2805,0,U,49725,999,24662,.40582794E-4,.358E-5,0
STARLINK-3242,2021-115D,2026-05-22T03:45:23.764320,15.08837756,.00011206,53.2173,189.3172,82.7910,277.3209,0,U,49727,999,24648,-.30531638E-4,-.774E-5,0
STARLINK-3240,2021-115E,2026-05-22T03:50:41.699904,15.08835791,.00010167,53.2177,189.2980,76.2258,283.8847,0,U,49728,999,24648,.24506375E-4,.102E-5,0
STARLINK-3251,2021-115F,2026-05-22T03:40:04.753920,15.08836985,.00011249,53.2160,189.2177,78.8132,281.2986,0,U,49729,999,24648,-.7431308E-5,-.406E-5,0
STARLINK-3249,2021-115G,2026-05-22T02:57:44.347680,15.08843856,.00010124,53.2174,189.6536,85.1998,274.9109,0,U,49730,999,24647,.14557767E-4,-.56E-6,0
STARLINK-3246,2021-115J,2026-05-21T09:39:05.861088,15.08830878,.0000995,53.2154,192.8573,88.9971,271.1135,0,U,49732,999,24636,-.4619E-5,-.361E-5,0
STARLINK-3252,2021-115K,2026-05-22T02:36:29.526912,15.08844328,.00015133,53.2148,189.5234,63.8068,296.3080,0,U,49733,999,24647,.13816545E-3,.1912E-4,0
STARLINK-3238,2021-115L,2026-05-22T03:04:19.859232,15.08836026,.00009356,53.2164,179.4696,77.4287,282.6810,0,U,49734,999,24662,.4313485E-4,.399E-5,0
